NOAA 1                  
1 04793U 70106A   25068.76172576 -.00000035  00000+0  51938-4 0  9997
2 04793 101.4045 117.3740 0031841 176.5571 297.7278 12.54040673482471
NOAA 2 (ITOS-D)         
1 06235U 72082A   25068.91694296 -.00000012  00000+0  22041-3 0  9997
2 06235 102.0253  77.0296 0003859 339.3291  80.7827 12.53196782397024
NOAA 3                  
1 06920U 73086A   25068.95617887 -.00000016  00000+0  22835-3 0  9993
2 06920 102.2911  73.3751 0006216 256.3795 158.7677 12.40379603324345
NOAA 4                  
1 07529U 74089A   25068.89445083 -.00000024  00000+0  14376-3 0  9993
2 07529 102.0048  71.7515 0008956   4.2615  56.7136 12.53192252301365
NOAA 5                  
1 09057U 76077A   25068.93715036 -.00000011  00000+0  26469-3 0  9995
2 09057 102.2496  48.2700 0009932 107.9313 314.7298 12.37814444197037
TIROS N                 
1 11060U 78096A   25068.69028494  .00000357  00000+0  19039-3 0  9990
2 11060  98.5001 104.7629 0011245 143.4981 216.6964 14.19124158612868
NOAA 6                  
1 11416U 79057A   25068.94759048  .00000646  00000+0  24200-3 0  9994
2 11416  98.6098  95.6758 0009788 187.4287 172.6754 14.35047419384368
NOAA 7                  
1 12553U 81059A   25068.78852657  .00000127  00000+0  84059-4 0  9997
2 12553  98.8550 133.8771 0012018 151.9289 208.2536 14.17674507258946
NOAA 8                  
1 13923U 83022A   25068.92823803  .00000349  00000+0  15401-3 0  9998
2 13923  98.7393  75.5414 0014968 172.0897 188.0524 14.29564402184735
NOAA 9                  
1 15427U 84123A   25068.93028089  .00000292  00000+0  16900-3 0  9998
2 15427  99.1263  79.0488 0014003 221.4322 197.9043 14.16867405 77673
NOAA 10                 
1 16969U 86073A   25068.89721360  .00000354  00000+0  15778-3 0  9994
2 16969  98.6694  58.7623 0010894 275.5153 141.9987 14.28939182  3106
NOAA 11                 
1 19531U 88089A   25068.83213324  .00000165  00000+0  10520-3 0  9991
2 19531  98.5596  26.2492 0010854 185.3599 174.7461 14.15709359881771
NOAA 12                 
1 21263U 91032A   25068.91352569  .00000275  00000+0  13199-3 0  9999
2 21263  98.5827  60.3907 0012718 308.2398  51.7638 14.26557950759029
NOAA 13                 
1 22739U 93050A   25068.83387349  .00000261  00000+0  16124-3 0  9991
2 22739  98.6456  22.7995 0009925  21.3094 338.8490 14.13472815627771
NOAA 14                 
1 23455U 94089A   25068.92239819  .00000175  00000+0  11232-3 0  9997
2 23455  98.4573  56.5059 0009142 345.3646  14.7262 14.14551046557565
NOAA 15                 
1 25338U 98030A   25068.88460189  .00000339  00000+0  15740-3 0  9990
2 25338  98.5459  96.1816 0009117 266.8558  93.1580 14.26903753395072
NOAA 16                 
1 26536U 00055A   25068.92276776  .00000201  00000+0  12822-3 0  9999
2 26536  98.5004 101.9527 0010300 187.7472 172.3544 14.13766189558128
