[{"OBJECT_NAME":"NOAA 1","OBJECT_ID":"1970-106A","EPOCH":"2025-03-09T18:16:53.105664","MEAN_MOTION":12.54040673,"ECCENTRICITY":0.0031841,"INCLINATION":101.4045,"RA_OF_ASC_NODE":117.374,"ARG_OF_PERICENTER":176.5571,"MEAN_ANOMALY":297.7278,"EPHEMERIS_TYPE":0,"CLASSIFICATION_TYPE":"U","NORAD_CAT_ID":4793,"ELEMENT_SET_NO":999,"REV_AT_EPOCH":48247,"BSTAR":5.1938e-5,"MEAN_MOTION_DOT":-3.5e-7,"MEAN_MOTION_DDOT":0},{"OBJECT_NAME":"NOAA 2 (ITOS-D)","OBJECT_ID":"1972-082A","EPOCH":"2025-03-09T22:00:23.871744","MEAN_MOTION":12.53196782,"ECCENTRICITY":0.0003859,"INCLINATION":102.0253,"RA_OF_ASC_NODE":77.0296,"ARG_OF_PERICENTER":339.3291,"MEAN_ANOMALY":80.7827,"EPHEMERIS_TYPE":0,"CLASSIFICATION_TYPE":"U","NORAD_CAT_ID":6235,"ELEMENT_SET_NO":999,"REV_AT_EPOCH":39702,"BSTAR":0.00022041,"MEAN_MOTION_DOT":-1.2e-7,"MEAN_MOTION_DDOT":0},{"OBJECT_NAME":"NOAA 3","OBJECT_ID":"1973-086A","EPOCH":"2025-03-09T22:56:53.854368","MEAN_MOTION":12.40379603,"ECCENTRICITY":0.0006216,"INCLINATION":102.2911,"RA_OF_ASC_NODE":73.3751,"ARG_OF_PERICENTER":256.3795,"MEAN_ANOMALY":158.7677,"EPHEMERIS_TYPE":0,"CLASSIFICATION_TYPE":"U","NORAD_CAT_ID":6920,"ELEMENT_SET_NO":999,"REV_AT_EPOCH":32434,"BSTAR":0.00022835,"MEAN_MOTION_DOT":-1.6e-7,"MEAN_MOTION_DDOT":0},{"OBJECT_NAME":"NOAA 4","OBJECT_ID":"1974-089A","EPOCH":"2025-03-09T21:28:00.551712","MEAN_MOTION":12.53192252,"ECCENTRICITY":0.0008956,"INCLINATION":102.0048,"RA_OF_ASC_NODE":71.7515,"ARG_OF_PERICENTER":4.2615,"MEAN_ANOMALY":56.7136,"EPHEMERIS_TYPE":0,"CLASSIFICATION_TYPE":"U","NORAD_CAT_ID":7529,"ELEMENT_SET_NO":999,"REV_AT_EPOCH":30136,"BSTAR":0.00014376,"MEAN_MOTION_DOT":-2.4e-7,"MEAN_MOTION_DDOT":0},{"OBJECT_NAME":"NOAA 5","OBJECT_ID":"1976-077A","EPOCH":"2025-03-09T22:29:29.791104","MEAN_MOTION":12.37814444,"ECCENTRICITY":0.0009932,"INCLINATION":102.2496,"RA_OF_ASC_NODE":48.27,"ARG_OF_PERICENTER":107.9313,"MEAN_ANOMALY":314.7298,"EPHEMERIS_TYPE":0,"CLASSIFICATION_TYPE":"U","NORAD_CAT_ID":9057,"ELEMENT_SET_NO":999,"REV_AT_EPOCH":19703,"BSTAR":0.00026469,"MEAN_MOTION_DOT":-1.1e-7,"MEAN_MOTION_DDOT":0},{"OBJECT_NAME":"TIROS N","OBJECT_ID":"1978-096A","EPOCH":"2025-03-09T16:34:00.618816","MEAN_MOTION":14.19124158,"ECCENTRICITY":0.0011245,"INCLINATION":98.5001,"RA_OF_ASC_NODE":104.7629,"ARG_OF_PERICENTER":143.4981,"MEAN_ANOMALY":216.6964,"EPHEMERIS_TYPE":0,"CLASSIFICATION_TYPE":"U","NORAD_CAT_ID":11060,"ELEMENT_SET_NO":999,"REV_AT_EPOCH":61286,"BSTAR":0.00019039,"MEAN_MOTION_DOT":3.57e-6,"MEAN_MOTION_DDOT":0},{"OBJECT_NAME":"NOAA 6","OBJECT_ID":"1979-057A","EPOCH":"2025-03-09T22:44:31.817472","MEAN_MOTION":14.35047419,"ECCENTRICITY":0.0009788,"INCLINATION":98.6098,"RA_OF_ASC_NODE":95.6758,"ARG_OF_PERICENTER":187.4287,"MEAN_ANOMALY":172.6754,"EPHEMERIS_TYPE":0,"CLASSIFICATION_TYPE":"U","NORAD_CAT_ID":11416,"ELEMENT_SET_NO":999,"REV_AT_EPOCH":38436,"BSTAR":0.000242,"MEAN_MOTION_DOT":6.46e-6,"MEAN_MOTION_DDOT":0},{"OBJECT_NAME":"NOAA 7","OBJECT_ID":"1981-059A","EPOCH":"2025-03-09T18:55:28.695648","MEAN_MOTION":14.17674507,"ECCENTRICITY":0.0012018,"INCLINATION":98.855,"RA_OF_ASC_NODE":133.8771,"ARG_OF_PERICENTER":151.9289,"MEAN_ANOMALY":208.2536,"EPHEMERIS_TYPE":0,"CLASSIFICATION_TYPE":"U","NORAD_CAT_ID":12553,"ELEMENT_SET_NO":999,"REV_AT_EPOCH":25894,"BSTAR":8.4059e-5,"MEAN_MOTION_DOT":1.27e-6,"MEAN_MOTION_DDOT":0},{"OBJECT_NAME":"NOAA 8","OBJECT_ID":"1983-022A","EPOCH":"2025-03-09T22:16:39.765792","MEAN_MOTION":14.29564402,"ECCENTRICITY":0.0014968,"INCLINATION":98.7393,"RA_OF_ASC_NODE":75.5414,"ARG_OF_PERICENTER":172.0897,"MEAN_ANOMALY":188.0524,"EPHEMERIS_TYPE":0,"CLASSIFICATION_TYPE":"U","NORAD_CAT_ID":13923,"ELEMENT_SET_NO":999,"REV_AT_EPOCH":18473,"BSTAR":0.00015401,"MEAN_MOTION_DOT":3.49e-6,"MEAN_MOTION_DDOT":0},{"OBJECT_NAME":"NOAA 9","OBJECT_ID":"1984-123A","EPOCH":"2025-03-09T22:19:36.268896","MEAN_MOTION":14.16867405,"ECCENTRICITY":0.0014003,"INCLINATION":99.1263,"RA_OF_ASC_NODE":79.0488,"ARG_OF_PERICENTER":221.4322,"MEAN_ANOMALY":197.9043,"EPHEMERIS_TYPE":0,"CLASSIFICATION_TYPE":"U","NORAD_CAT_ID":15427,"ELEMENT_SET_NO":999,"REV_AT_EPOCH":7767,"BSTAR":0.000169,"MEAN_MOTION_DOT":2.92e-6,"MEAN_MOTION_DDOT":0},{"OBJECT_NAME":"NOAA 10","OBJECT_ID":"1986-073A","EPOCH":"2025-03-09T21:31:59.255040","MEAN_MOTION":14.28939182,"ECCENTRICITY":0.0010894,"INCLINATION":98.6694,"RA_OF_ASC_NODE":58.7623,"ARG_OF_PERICENTER":275.5153,"MEAN_ANOMALY":141.9987,"EPHEMERIS_TYPE":0,"CLASSIFICATION_TYPE":"U","NORAD_CAT_ID":16969,"ELEMENT_SET_NO":999,"REV_AT_EPOCH":310,"BSTAR":0.00015778,"MEAN_MOTION_DOT":3.54e-6,"MEAN_MOTION_DDOT":0},{"OBJECT_NAME":"NOAA 11","OBJECT_ID":"1988-089A","EPOCH":"2025-03-09T19:58:16.311936","MEAN_MOTION":14.15709359,"ECCENTRICITY":0.0010854,"INCLINATION":98.5596,"RA_OF_ASC_NODE":26.2492,"ARG_OF_PERICENTER":185.3599,"MEAN_ANOMALY":174.7461,"EPHEMERIS_TYPE":0,"CLASSIFICATION_TYPE":"U","NORAD_CAT_ID":19531,"ELEMENT_SET_NO":999,"REV_AT_EPOCH":88177,"BSTAR":0.0001052,"MEAN_MOTION_DOT":1.65e-6,"MEAN_MOTION_DDOT":0},{"OBJECT_NAME":"NOAA 12","OBJECT_ID":"1991-032A","EPOCH":"2025-03-09T21:55:28.619616","MEAN_MOTION":14.2655795,"ECCENTRICITY":0.0012718,"INCLINATION":98.5827,"RA_OF_ASC_NODE":60.3907,"ARG_OF_PERICENTER":308.2398,"MEAN_ANOMALY":51.7638,"EPHEMERIS_TYPE":0,"CLASSIFICATION_TYPE":"U","NORAD_CAT_ID":21263,"ELEMENT_SET_NO":999,"REV_AT_EPOCH":75902,"BSTAR":0.00013199,"MEAN_MOTION_DOT":2.75e-6,"MEAN_MOTION_DDOT":0},{"OBJECT_NAME":"NOAA 13","OBJECT_ID":"1993-050A","EPOCH":"2025-03-09T20:00:46.669536","MEAN_MOTION":14.13472815,"ECCENTRICITY":0.0009925,"INCLINATION":98.6456,"RA_OF_ASC_NODE":22.7995,"ARG_OF_PERICENTER":21.3094,"MEAN_ANOMALY":338.849,"EPHEMERIS_TYPE":0,"CLASSIFICATION_TYPE":"U","NORAD_CAT_ID":22739,"ELEMENT_SET_NO":999,"REV_AT_EPOCH":62777,"BSTAR":0.00016124,"MEAN_MOTION_DOT":2.61e-6,"MEAN_MOTION_DDOT":0},{"OBJECT_NAME":"NOAA 14","OBJECT_ID":"1994-089A","EPOCH":"2025-03-09T22:08:15.203616","MEAN_MOTION":14.14551046,"ECCENTRICITY":0.0009142,"INCLINATION":98.4573,"RA_OF_ASC_NODE":56.5059,"ARG_OF_PERICENTER":345.3646,"MEAN_ANOMALY":14.7262,"EPHEMERIS_TYPE":0,"CLASSIFICATION_TYPE":"U","NORAD_CAT_ID":23455,"ELEMENT_SET_NO":999,"REV_AT_EPOCH":55756,"BSTAR":0.00011232,"MEAN_MOTION_DOT":1.75e-6,"MEAN_MOTION_DDOT":0},{"OBJECT_NAME":"NOAA 15","OBJECT_ID":"1998-030A","EPOCH":"2025-03-09T21:13:49.603296","MEAN_MOTION":14.26903753,"ECCENTRICITY":0.0009117,"INCLINATION":98.5459,"RA_OF_ASC_NODE":96.1816,"ARG_OF_PERICENTER":266.8558,"MEAN_ANOMALY":93.158,"EPHEMERIS_TYPE":0,"CLASSIFICATION_TYPE":"U","NORAD_CAT_ID":25338,"ELEMENT_SET_NO":999,"REV_AT_EPOCH":39507,"BSTAR":0.0001574,"MEAN_MOTION_DOT":3.39e-6,"MEAN_MOTION_DDOT":0},{"OBJECT_NAME":"NOAA 16","OBJECT_ID":"2000-055A","EPOCH":"2025-03-09T22:08:47.134464","MEAN_MOTION":14.13766189,"ECCENTRICITY":0.00103,"INCLINATION":98.5004,"RA_OF_ASC_NODE":101.9527,"ARG_OF_PERICENTER":187.7472,"MEAN_ANOMALY":172.3544,"EPHEMERIS_TYPE":0,"CLASSIFICATION_TYPE":"U","NORAD_CAT_ID":26536,"ELEMENT_SET_NO":999,"REV_AT_EPOCH":55812,"BSTAR":0.00012822,"MEAN_MOTION_DOT":2.01e-6,"MEAN_MOTION_DDOT":0}]
